[{"OBJECT_NAME":"TIANHUI 2-02B","OBJECT_ID":"2021-074B","EPOCH":"2026-03-09T12:16:24.599712","MEAN_MOTION":15.16781044,"ECCENTRICITY":0.0002039,"INCLINATION":97.4828,"RA_OF_ASC_NODE":73.0429,"ARG_OF_PERICENTER":85.7356,"MEAN_ANOMALY":274.411,"EPHEMERIS_TYPE":0,"CLASSIFICATION_TYPE":"U","NORAD_CAT_ID":49072,"ELEMENT_SET_NO":999,"REV_AT_EPOCH":25216,"BSTAR":0.0001397,"MEAN_MOTION_DOT":2.676e-5,"MEAN_MOTION_DDOT":0},{"OBJECT_NAME":"TITAN 3C TRANSTAGE DEB","OBJECT_ID":"1965-082GW","EPOCH":"2026-03-09T12:42:20.172960","MEAN_MOTION":15.14963153,"ECCENTRICITY":0.00030531,"INCLINATION":31.8551,"RA_OF_ASC_NODE":209.3641,"ARG_OF_PERICENTER":343.4922,"MEAN_ANOMALY":16.5634,"EPHEMERIS_TYPE":0,"CLASSIFICATION_TYPE":"U","NORAD_CAT_ID":1961,"ELEMENT_SET_NO":999,"REV_AT_EPOCH":22902,"BSTAR":0.00048671967,"MEAN_MOTION_DOT":9.381e-5,"MEAN_MOTION_DDOT":0}]
